STARLINK-37787          
1 69692U 26145R   26194.05912405  .00180458  00000+0  11862-2 0  9993
2 69692  97.2835  40.8406 0002400  70.9961 289.1564 15.75172608  2849
STARLINK-37962          
1 69693U 26145S   26194.05735823  .00172415  00000+0  11340-2 0  9996
2 69693  97.2847  40.8440 0001924  78.4355 281.7126 15.75182603  2849
STARLINK-37953          
1 69694U 26145T   26193.99665381  .00252339  00000+0  16355-2 0  9995
2 69694  97.2837  40.7730 0001112  73.6264 286.5123 15.75297436  2835
STARLINK-37926          
1 69695U 26145U   26194.05947544  .00140253  00000+0  92659-3 0  9991
2 69695  97.2846  40.8408 0001974  80.8657 279.2832 15.75170001  2846
STARLINK-37959          
1 69696U 26145V   26194.05841587  .00175571  00000+0  11548-2 0  9990
2 69696  97.2848  40.8413 0001778  73.8020 286.3441 15.75173010  2841
STARLINK-37976          
1 69697U 26145W   26194.05558905  .00099142  00000+0  65650-3 0  9993
2 69697  97.2832  40.8465 0000439 349.2191  10.9064 15.75238569  2847
STARLINK-37912          
1 69698U 26145X   26194.05453440  .00156612  00000+0  10280-2 0  9996
2 69698  97.2840  40.8486 0001317  31.0813 329.0530 15.75274156  2847
STARLINK-37974          
1 69699U 26145Y   26194.05383144  .00274257  00000+0  17711-2 0  9992
2 69699  97.2835  40.8492 0001748  46.1339 314.0071 15.75320930  2843
STARLINK-37955          
1 69700U 26145Z   26194.11488764  .00078475  00000+0  52163-3 0  9991
2 69700  97.2842  40.9189 0001918  92.9542 267.1943 15.75213493  2854
STARLINK-38055          
1 69704U 26147A   26194.08027927  .00266151  00000+0  13425-2 0  9990
2 69704  97.2842 230.3440 0000859 102.1932 257.9432 15.80909405  3529
STARLINK-37898          
1 69705U 26147B   26194.07945355  .00196668  00000+0  10008-2 0  9993
2 69705  97.2846 230.3453 0000962  91.8654 268.2725 15.80897557  3522
STARLINK-37970          
1 69706U 26147C   26194.07870160  .00154379  00000+0  78992-3 0  9995
2 69706  97.2833 230.3462 0001282 104.5065 255.6346 15.80888101  3527
STARLINK-37975          
1 69707U 26147D   26194.07795076  .00181179  00000+0  92423-3 0  9991
2 69707  97.2842 230.3474 0000665  37.6587 322.4727 15.80884304  3527
STARLINK-37972          
1 69708U 26147E   26194.07720071  .00356013  00000+0  17708-2 0  9998
2 69708  97.2827 230.3483 0001416 131.9783 228.1606 15.80985607  3528
STARLINK-37963          
1 69709U 26147F   26194.07644677  .00214593  00000+0  10895-2 0  9992
2 69709  97.2834 230.3484 0000386  76.4176 283.7135 15.80899599  3520
STARLINK-37969          
1 69710U 26147G   26194.07569580  .00189256  00000+0  96405-3 0  9992
2 69710  97.2833 230.3502 0001376 120.6066 239.5338 15.80894466  3524
STARLINK-37956          
1 69711U 26147H   26194.07494500  .00165002  00000+0  84334-3 0  9993
2 69711  97.2836 230.3520 0001190 106.0928 254.0471 15.80884385  3526
STARLINK-38043          
1 69712U 26147J   26194.07419490  .00375187  00000+0  18611-2 0  9990
2 69712  97.2837 230.3525 0001533 124.4004 235.7409 15.80996319  3521
STARLINK-38020          
1 69713U 26147K   26194.07344205  .00183409  00000+0  93430-3 0  9999
2 69713  97.2834 230.3535 0001844 120.1791 239.9660 15.80908550  3526
STARLINK-38059          
1 69714U 26147L   26194.07269023  .00236164  00000+0  11954-2 0  9991
2 69714  97.2835 230.3547 0001261  96.6243 263.5169 15.80911690  3529
STARLINK-38061          
1 69715U 26147M   26193.56553900  .00200648  00000+0  10183-2 0  9996
2 69715  97.2850 229.8216 0000910  70.5343 289.6024 15.80946327  3440
STARLINK-38060          
1 69716U 26147N   26194.07118872  .00203365  00000+0  10349-2 0  9992
2 69716  97.2840 230.3572 0000713  66.2004 293.9339 15.80878954  3525
STARLINK-38040          
1 69717U 26147P   26193.56403243  .00339677  00000+0  16918-2 0  9999
2 69717  97.2846 229.8231 0000557  18.4300 341.6989 15.80996736  3443
STARLINK-37989          
1 69718U 26147Q   26193.33335648 -.00098494  00000+0 -51827-3 0  9998
2 69718  97.2834 229.5802 0001325  94.5508  37.9655 15.80858469  3378
STARLINK-38039          
1 69719U 26147R   26192.04330138  .00408940  00000+0  19472-2 0  9993
2 69719  97.2728 228.2092 0004840 174.3599 185.7725 15.81797917  3203
STARLINK-38003          
1 69720U 26147S   26193.94158250  .00292942  00000+0  14716-2 0  9997
2 69720  97.2828 230.2266 0001517 107.6188 252.5246 15.80931223  3506
STARLINK-38014          
1 69721U 26147T   26193.56102809  .00369560  00000+0  18338-2 0  9990
2 69721  97.2841 229.8266 0000843  50.1764 309.9579 15.81002046  3441
STARLINK-37915          
1 69722U 26147U   26194.00337905  .00226889  00000+0  11491-2 0  9997
2 69722  97.2823 230.2959 0001182 108.9793 251.1604 15.80923484  3510
STARLINK-38007          
1 69723U 26147V   26194.13241569 -.02683838  00000+0 -17424-1 0  9998
2 69723  97.2828 230.4277 0010022 113.0026 247.2300 15.79494951  3531
STARLINK-38008          
1 69724U 26147W   26194.06517632  .00410418  00000+0  20246-2 0  9993
2 69724  97.2825 230.3649 0001850 136.2991 223.8424 15.81027502  3521
